TEVEL2-3                
1 63218U 25052J   26068.64540225  .00020365  00000+0  69446-3 0  9991
2 63218  97.3994 324.7775 0004761 105.7353 254.4413 15.30377031 54855
STARLINK-36451          
1 67339U 26003F   26067.51845920  .00030584  00000+0  11161-2 0  9995
2 67339  43.0010 233.7783 0001494 268.3388  91.7293 15.27586134  8648
